NORAD_CAT_ID,OBJECT_NAME,OBJECT_TYPE,EPOCH,MEAN_MOTION,ECCENTRICITY,INCLINATION,RA_OF_ASC_NODE,ARG_OF_PERICENTER,MEAN_ANOMALY,BSTAR,MEAN_MOTION_DOT,MEAN_MOTION_DDOT,TLE_LINE0,TLE_LINE1,TLE_LINE2,SEMIMAJOR_AXIS,PERIOD,APOGEE,PERIGEE,DECAYED
55759.0,STARLINK-5081,PAYLOAD,2023-09-12 06:00:00,14.98319904,0.0003282,70.0033,357.6519,269.7546,120.9295,0.00475,0.00057033,0.0,0 STARLINK-5081,1 55759U 23028U   23255.25001157  .00057033  00000-0  47500-2 0  9990,2 55759  70.0033 357.6519 0003282 269.7546 120.9295 14.98319904 30308,6950.224,96.108,574.37,569.808,0.0
55759.0,STARLINK-5081,PAYLOAD,2023-09-12 12:16:26,14.98281177,0.0003089,70.0015,356.994,265.068,95.0126,-0.00037006,-4.5e-05,0.0,0 STARLINK-5081,1 55759U 23028U   23255.51141405 -.00004500  00000-0 -37006-3 0  9994,2 55759  70.0015 356.9940 0003089 265.0680  95.0126 14.98281177 30340,6950.344,96.11,574.356,570.062,0.0
55759.0,STARLINK-5081,PAYLOAD,2023-09-12 13:52:30,14.98336691,0.000308,70.0016,356.8257,269.4315,90.6491,5.679e-05,5.85e-06,0.0,0 STARLINK-5081,1 55759U 23028U   23255.57813016  .00000585  00000-0  56790-4 0  9993,2 55759  70.0016 356.8257 0003080 269.4315  90.6491 14.98336691 30354,6950.172,96.107,574.178,569.897,0.0
55759.0,STARLINK-5081,PAYLOAD,2023-09-12 17:04:46,14.9833996,0.0002881,70.0022,356.49,266.7499,93.3331,0.00010721,1.187e-05,0.0,0 STARLINK-5081,1 55759U 23028U   23255.71164603  .00001187  00000-0  10721-3 0  9992,2 55759  70.0022 356.4900 0002881 266.7499  93.3331 14.98339960 30370,6950.162,96.106,574.029,570.025,0.0
55759.0,STARLINK-5081,PAYLOAD,2023-09-13 10:42:15,14.98334273,0.0002875,70.0024,354.6378,270.2251,89.8578,8.1117e-05,8.75e-06,0.0,0 STARLINK-5081,1 55759U 23028U   23256.44600700  .00000875  00000-0  81117-4 0  9997,2 55759  70.0024 354.6378 0002875 270.2251  89.8578 14.98334273 30487,6950.18,96.107,574.043,570.047,0.0
55759.0,STARLINK-5081,PAYLOAD,2023-09-13 12:18:22,14.98335141,0.0002907,70.0025,354.4696,270.9185,89.1641,9.3281e-05,1.02e-05,0.0,0 STARLINK-5081,1 55759U 23028U   23256.51276572  .00001020  00000-0  93281-4 0  9999,2 55759  70.0025 354.4696 0002907 270.9185  89.1641 14.98335141 30498,6950.177,96.107,574.062,570.022,0.0
55759.0,STARLINK-5081,PAYLOAD,2023-09-13 17:06:46,14.98339598,0.000243,70.0027,353.9649,262.8442,97.2441,0.00015604,1.77e-05,0.0,0 STARLINK-5081,1 55759U 23028U   23256.71304030  .00001770  00000-0  15604-3 0  9996,2 55759  70.0027 353.9649 0002430 262.8442  97.2441 14.98339598 30521,6950.163,96.106,573.717,570.339,0.0
55759.0,STARLINK-5081,PAYLOAD,2023-09-13 23:31:19,14.98339153,0.0003361,70.0036,353.2919,263.9853,96.0923,-0.0002914,-3.569e-05,0.0,0 STARLINK-5081,1 55759U 23028U   23256.98008828 -.00003569  00000-0 -29140-3 0  9991,2 55759  70.0036 353.2919 0003361 263.9853  96.0923 14.98339153 30569,6950.165,96.106,574.366,569.694,0.0
55759.0,STARLINK-5081,PAYLOAD,2023-09-14 10:44:18,14.98304106,0.0003137,70.0012,352.1119,267.8194,92.2606,-0.00028483,-3.488e-05,0.0,0 STARLINK-5081,1 55759U 23028U   23257.44743655 -.00003488  00000-0 -28483-3 0  9996,2 55759  70.0012 352.1119 0003137 267.8194  92.2606 14.98304106 30639,6950.273,96.109,574.318,569.958,0.0
55759.0,STARLINK-5081,PAYLOAD,2023-09-14 12:20:26,14.9830568,0.0003105,70.0017,351.9443,268.6624,91.418,-0.0002487,-3.057e-05,0.0,0 STARLINK-5081,1 55759U 23028U   23257.51419565 -.00003057  00000-0 -24870-3 0  9992,2 55759  70.0017 351.9443 0003105 268.6624  91.4180 14.98305680 30640,6950.268,96.109,574.291,569.975,0.0
55759.0,STARLINK-5081,PAYLOAD,2023-09-14 15:32:42,14.98307508,0.0003013,70.0031,351.6114,266.9887,93.0927,-0.00028383,-3.476e-05,0.0,0 STARLINK-5081,1 55759U 23028U   23257.64771744 -.00003476  00000-0 -28383-3 0  9994,2 55759  70.0031 351.6114 0003013 266.9887  93.0927 14.98307508 30668,6950.262,96.108,574.222,570.033,0.0
55759.0,STARLINK-5081,PAYLOAD,2023-09-15 04:00:00,14.98293582,0.0003294,70.0031,350.2991,262.2247,16.3727,0.0064152,0.0007723,0.0,0 STARLINK-5081,1 55759U 23028U   23258.16667824  .00077230  00000-0  64152-2 0  9995,2 55759  70.0031 350.2991 0003294 262.2247  16.3727 14.98293582 30736,6950.306,96.109,574.46,569.881,0.0
55759.0,STARLINK-5081,PAYLOAD,2023-09-15 14:00:01,14.98342763,0.0003309,70.0033,349.2486,269.2699,96.1809,-0.00081347,-9.789e-05,0.0,0 STARLINK-5081,1 55759U 23028U   23258.58334491 -.00009789  00000-0 -81347-3 0  9994,2 55759  70.0033 349.2486 0003309 269.2699  96.1809 14.98342763 30801,6950.153,96.106,574.318,569.719,0.0
55759.0,STARLINK-5081,PAYLOAD,2023-09-15 23:35:22,14.98331334,0.0003176,70.0013,348.2398,270.936,89.1435,4.7182e-05,4.7e-06,0.0,0 STARLINK-5081,1 55759U 23028U   23258.98289820  .00000470  00000-0  47182-4 0  9999,2 55759  70.0013 348.2398 0003176 270.9360  89.1435 14.98331334 30861,6950.189,96.107,574.261,569.846,0.0
55759.0,STARLINK-5081,PAYLOAD,2023-09-16 09:12:11,14.98317682,0.0003192,70.0009,347.2298,266.1258,93.9536,0.00031607,3.679e-05,0.0,0 STARLINK-5081,1 55759U 23028U   23259.38346090  .00003679  00000-0  31607-3 0  9995,2 55759  70.0009 347.2298 0003192 266.1258  93.9536 14.98317682 30927,6950.231,96.108,574.314,569.877,0.0
55759.0,STARLINK-5081,PAYLOAD,2023-09-16 14:00:34,14.98325177,0.0003211,70.0012,346.7266,266.8829,93.1962,0.00029659,3.447e-05,0.0,0 STARLINK-5081,1 55759U 23028U   23259.58373796  .00003447  00000-0  29659-3 0  9997,2 55759  70.0012 346.7266 0003211 266.8829  93.1962 14.98325177 30959,6950.208,96.107,574.305,569.841,0.0
55759.0,STARLINK-5081,PAYLOAD,2023-09-16 15:36:42,14.98327372,0.0003204,70.0013,346.5586,266.5191,93.5601,0.00031402,3.656e-05,0.0,0 STARLINK-5081,1 55759U 23028U   23259.65049624  .00003656  00000-0  31402-3 0  9996,2 55759  70.0013 346.5586 0003204 266.5191  93.5601 14.98327372 30968,6950.201,96.107,574.293,569.839,0.0
55759.0,STARLINK-5081,PAYLOAD,2023-09-17 12:26:27,14.98337323,0.0003091,70.0015,344.3698,267.6688,92.4117,4.2136e-05,4.1e-06,0.0,0 STARLINK-5081,1 55759U 23028U   23260.51837670  .00000410  00000-0  42136-4 0  9991,2 55759  70.0015 344.3698 0003091 267.6688  92.4117 14.98337323 31099,6950.17,96.107,574.184,569.887,0.0
55759.0,STARLINK-5081,PAYLOAD,2023-09-17 15:38:43,14.98341628,0.0003077,70.0016,344.0336,268.22,91.8606,8.8949e-05,9.69e-06,0.0,0 STARLINK-5081,1 55759U 23028U   23260.65189180  .00000969  00000-0  88949-4 0  9993,2 55759  70.0016 344.0336 0003077 268.2200  91.8606 14.98341628 31119,6950.157,96.106,574.16,569.883,0.0
55759.0,STARLINK-5081,PAYLOAD,2023-09-18 10:52:20,14.98332582,0.0002933,70.0022,342.0148,266.5601,93.5223,-5.7478e-05,-7.79e-06,0.0,0 STARLINK-5081,1 55759U 23028U   23261.45301759 -.00000779  00000-0 -57478-4 0  9994,2 55759  70.0022 342.0148 0002933 266.5601  93.5223 14.98332582 31237,6950.185,96.107,574.088,570.011,0.0
55759.0,STARLINK-5081,PAYLOAD,2023-09-18 14:04:36,14.98335863,0.0002681,70.0026,341.6787,258.6571,101.4287,-3.887e-05,-5.57e-06,0.0,0 STARLINK-5081,1 55759U 23028U   23261.58653457 -.00000557  00000-0 -38870-4 0  9992,2 55759  70.0026 341.6787 0002681 258.6571 101.4287 14.98335863 31259,6950.175,96.107,573.903,570.176,0.0
55759.0,STARLINK-5081,PAYLOAD,2023-09-18 15:40:44,14.98336643,0.0002686,70.0026,341.5105,258.4174,101.6684,-2.9683e-05,-4.47e-06,0.0,0 STARLINK-5081,1 55759U 23028U   23261.65329349 -.00000447  00000-0 -29683-4 0  9990,2 55759  70.0026 341.5105 0002686 258.4174 101.6684 14.98336643 31265,6950.172,96.107,573.904,570.171,0.0
55759.0,STARLINK-5081,PAYLOAD,2023-09-19 10:54:20,14.9833964,0.0002971,70.0016,339.4886,271.6692,88.4127,3.6581e-05,3.44e-06,0.0,0 STARLINK-5081,1 55759U 23028U   23262.45440541  .00000344  00000-0  36581-4 0  9996,2 55759  70.0016 339.4886 0002971 271.6692  88.4127 14.98339640 31382,6950.163,96.106,574.093,569.963,0.0
55759.0,STARLINK-5081,PAYLOAD,2023-09-19 15:42:43,14.9836406,0.0002461,70.0018,338.984,259.6458,100.4424,-0.00016762,-2.094e-05,0.0,0 STARLINK-5081,1 55759U 23028U   23262.65467228 -.00002094  00000-0 -16762-3 0  9993,2 55759  70.0018 338.9840 0002461 259.6458 100.4424 14.98364060 31411,6950.088,96.105,573.663,570.242,0.0
55759.0,STARLINK-5081,PAYLOAD,2023-09-20 09:20:15,14.98316615,0.0003061,70.0014,337.1327,275.806,84.275,-0.00015689,-1.964e-05,0.0,0 STARLINK-5081,1 55759U 23028U   23263.38906459 -.00001964  00000-0 -15689-3 0  9990,2 55759  70.0014 337.1327 0003061 275.8060  84.2750 14.98316615 31520,6950.234,96.108,574.227,569.972,0.0
55759.0,STARLINK-5081,PAYLOAD,2023-09-20 14:08:39,14.98317226,0.0003092,70.001,336.627,276.0973,83.9834,-0.00015225,-1.909e-05,0.0,0 STARLINK-5081,1 55759U 23028U   23263.58934533 -.00001909  00000-0 -15225-3 0  9991,2 55759  70.0010 336.6270 0003092 276.0973  83.9834 14.98317226 31558,6950.232,96.108,574.246,569.948,0.0
55759.0,STARLINK-5081,PAYLOAD,2023-09-21 09:22:15,14.98331766,0.0003207,70.0009,334.6075,277.8081,82.2714,-6.696e-06,-1.73e-06,0.0,0 STARLINK-5081,1 55759U 23028U   23264.39045416 -.00000173  00000-0 -66960-5 0  9990,2 55759  70.0009 334.6075 0003207 277.8081  82.2714 14.98331766 31671,6950.187,96.107,574.281,569.824,0.0
55759.0,STARLINK-5081,PAYLOAD,2023-09-21 12:34:30,14.9833914,0.0003209,70.0007,334.2708,275.579,84.5003,-9.4835e-06,-2.06e-06,0.0,0 STARLINK-5081,1 55759U 23028U   23264.52396907 -.00000206  00000-0 -94835-5 0  9998,2 55759  70.0007 334.2708 0003209 275.5790  84.5003 14.98339140 31694,6950.165,96.106,574.26,569.799,0.0
55759.0,STARLINK-5081,PAYLOAD,2023-09-21 14:10:38,14.98341696,0.0003168,70.0006,334.1024,274.6184,85.4613,-1.051e-06,-1.06e-06,0.0,0 STARLINK-5081,1 55759U 23028U   23264.59072675 -.00000106  00000-0 -10510-5 0  9995,2 55759  70.0006 334.1024 0003168 274.6184  85.4613 14.98341696 31702,6950.157,96.106,574.224,569.82,0.0
55759.0,STARLINK-5081,PAYLOAD,2023-09-21 22:11:19,14.98335057,0.0002608,70.0021,333.2605,276.1401,83.9461,-8.8618e-05,-1.15e-05,0.0,0 STARLINK-5081,1 55759U 23028U   23264.92453393 -.00001150  00000-0 -88618-4 0  9995,2 55759  70.0021 333.2605 0002608 276.1401  83.9461 14.98335057 31754,6950.177,96.107,573.855,570.23,0.0
